0 APRIZESAT 2
1 28366U 04025A   26161.25713082  .00000140  00000-0  57050-4 0  9996
2 28366  98.1008 327.6301 0104262 271.0183  87.9061 14.38033174150643
0 SAUDICOMSAT 1
1 28369U 04025D   26161.62284532  .00000343  00000-0  89721-4 0  9998
2 28369  98.5771 171.5772 0033026  45.3012 315.0866 14.55468457163172
0 SAUDICOMSAT 2
1 28370U 04025E   26161.56949204  .00000233  00000-0  71908-4 0  9993
2 28370  98.6642 173.6283 0054139 279.9822  79.5264 14.49977453159144
0 APRIZESAT 1
1 28372U 04025G   26161.60930634  .00000179  00000-0  56014-4 0  9997
2 28372  98.6303 172.1558 0044689 173.6486 186.5284 14.51773651160953
0 NANOSAT(1)
1 28493U 04049B   26161.61176347  .00000899  00000-0  12575-3 0  9993
2 28493  98.2268 298.1123 0003163 330.5597  29.5436 14.80146632154479
0 SAUDICOMSAT 7
1 31119U 07012C   26161.49264294  .00000412  00000-0  83078-4 0  9998
2 31119  98.3775 135.4874 0054856 216.4020 143.3448 14.66103948 21452
0 SAUDICOMSAT 6
1 31121U 07012E   26161.18052265  .00000575  00000-0  11943-3 0  9991
2 31121  98.4096 128.5668 0071570 349.7182  10.2551 14.62549610 19165
0 SAUDICOMSAT 5
1 31124U 07012H   26161.47542091  .00000485  00000-0  92055-4 0  9991
2 31124  98.3486 136.2185 0048113 145.4025 215.0325 14.68148250 22613
0 SAUDICOMSAT 3
1 31125U 07012J   26161.17550719  .00000759  00000-0  13177-3 0  9996
2 31125  98.3140 136.4615 0040469  74.7018 285.8655 14.70693972 23793
0 SAUDICOMSAT 4
1 31127U 07012L   26161.18572832  .00000459  00000-0  94174-4 0  9993
2 31127  98.3979 133.6134 0062071 280.5757  78.8457 14.64505245 20267
0 APRIZESAT 4
1 35684U 09041D   26161.44643908  .00000584  00000-0  76372-4 0  9990
2 35684  98.1412 236.6325 0042866 345.2668  14.7293 14.83870372910368
0 APRIZESAT 3
1 35686U 09041F   26161.34454705  .00001165  00000-0  10508-3 0  9990
2 35686  98.2053 314.2413 0062771  89.7329 271.1083 14.96220597915356
0 S-NET D
1 43186U 18014G   26161.46833202  .00004592  00000-0  23824-3 0  9992
2 43186  97.5371  66.3009 0009549  50.7592 309.4487 15.16609598457747
0 S-NET B
1 43187U 18014H   26161.28171504  .00005113  00000-0  26504-3 0  9991
2 43187  97.5375  66.1017 0010042  46.5219 313.6848 15.16577938457715
0 S-NET A
1 43188U 18014J   26161.46724519  .00004567  00000-0  23685-3 0  9991
2 43188  97.5386  66.4936 0009969  46.8834 313.3231 15.16617465457749
0 S-NET C
1 43189U 18014K   26161.48349659  .00004857  00000-0  25196-3 0  9993
2 43189  97.5403  66.5833 0011129  39.1939 321.0098 15.16570695456298
0 SALSAT
1 46495U 20068K   26161.53894844  .00006924  00000-0  24329-3 0  9999
2 46495  97.8853 164.1992 0008621 335.4923  24.5905 15.29703223314342
0 OOV-CUBE
1 60240U 24128F   26161.60113742  .00001981  00000-0  16003-3 0  9991
2 60240  61.9950 248.5377 0045444 132.2861 228.2097 15.02746418105121
0 LPNTSAT-001
1 68408U 26065A   26161.61901321  .00002744  00000-0  13585-3 0  9996
2 68408  97.4031  42.2675 0017373  32.8899 327.3413 15.18503418 11267
